#dP2024  3  7 12  0  0.00000000      96 __u+U IGS20 EXT  IAC
## 2304 388800.00000000   900.00000000 60376 0.5000000000000
+  117   C06C07C08C09C10C11C12C13C14C16C19C20C21C22C23C24C25
+        C26C27C28C29C30C32C33C34C35C36C37C38C39C40C41C42C43
+        C44C45C46E02E03E04E05E07E08E09E10E11E12E13E14E15E18
+        E19E21E24E25E26E27E30E31E33E34E36G01G02G03G04G05G06
+        G07G08G09G10G11G12G13G14G15G16G17G18G19G20G21G22G23
+        G24G25G26G27G28G29G30G31G32J02J04R01R02R03R04R05R07
+        R08R09R11R12R13R14R15R16R17R18R19R20R21R22R24  0  0
++         9  8 11 12  9 11  8 10 10  8  7  7  8  8  8  8  8
++         9  7  9  8  8  9  9 11 11  8  8  9  9 10  8  9  9
++         9  7  8  7  7  9  8  7  8  7  8  8  7  7  7  7  6
++         7  6  7  7  8  6  7  6  8  7  8  7  5  6  6  7  7
++         6  8  7  7  7  6  8  7  7  6  7  7  7  6  5  7  7
++         7  6  6  6  9  7  6  7  7 10  8  8  8  7  7  8  9
++         8  7  7  7  8  7  9  7  9  7  8 11  9  7  8  0  0
%c M  cc GPS ccc cccc cccc cccc cccc ccccc ccccc ccccc ccccc
%c cc cc ccc ccc cccc cccc cccc cccc ccccc ccccc ccccc ccccc
%f  0.0000000  0.000000000  0.00000000000  0.000000000000000
%f  0.0000000  0.000000000  0.00000000000  0.000000000000000
%i    0    0    0    0      0      0      0      0         0
%i    0    0    0    0      0      0      0      0         0
/* IAC                                ULTRA-RAPID PREDICTION
/* S/V CLOCKS ARE ALIGNED TO GNSS TIME                      
/* G:C1WC2W R:C1PC2P E:C1XC5X C:C2IC6I J:C1CC2S             
/* PCV:IGS20_2290 OL/AL:FES2004  NONE     YN ORB:CoN CLK:CoN
*  2024 03 07 14 15  0.00000000
PC06 -18422.062270  29705.007607 -23746.124541    256.989261
PC07  -6789.337083  39205.332891 -13545.740851   -917.600347
PC08  -2884.980235  21209.572772  36346.487140    -18.018437
PC09 -11866.057580  28512.728218 -28526.445312   -588.153041
PC10   -457.289806  41235.047620  -6906.824447     55.222603
PC11   8783.443807  13056.998414  23112.975715    447.608651
PC12  -8469.543806  22781.494487  13754.809497   -208.070937
PC13   5580.293845  25364.055305  33452.002470    423.123900
PC14  13808.901651  22701.082729  -8410.203859    351.781991
PC16 -22103.874947  29109.268450 -21031.332680   -382.161048
PC19 -16811.929103 -15253.394366  16279.177113   -920.954959
PC20  -9611.350048 -26200.794776    985.456816   -233.228455
PC21  -4200.898096  22181.686279  16404.988902   -961.403163
PC22 -14789.280700   5077.049293  23116.576135    -83.521657
PC23  26153.161514  -1895.240216   9552.198220   -777.308384
PC24   8870.599540  16810.283917 -20460.547701    950.063242
PC25  25145.061536   9673.920483  -7327.033809    343.671941
PC26 -11368.822166  13738.549163 -21478.221611   -259.387689
PC27  14930.178966 -22854.514746  -5772.827877    281.327583
PC28  21904.684270 -14120.093076   9977.863738    214.414150
PC29 -16222.425578  -4819.606161 -22196.128236    251.393596
PC30   -593.884707 -20373.117507 -19058.677256    -34.744094
PC32   4040.617458 -22199.676225 -16409.946889   -578.988887
PC33  16888.255208  15212.404055 -16168.232359   -955.233357
PC34   1982.971285  19559.322888  19801.479119    384.942263
PC35 -21426.090639  14807.608387 -10091.450497    416.811297
PC36 -24696.859682 -10469.175089   7691.942462     10.147234
PC37  12152.952162 -13285.079554  21329.363530   -942.230294
PC38 -11929.112723  19378.872439  35542.167010    141.262944
PC39 -25652.133761  29761.384956 -15541.056965     -7.455301
PC40 -11731.352184  36532.836908 -17164.888056    -59.692773
PC41  15075.325656  -4251.623518 -23036.307547   -901.616407
PC42   8603.907446  26520.369956    719.064564   -448.648666
PC43  15701.697574   5837.362918  22304.068693     63.215036
PC44 -14176.018571  23411.445258   5529.165044    406.112152
PC45 -26075.777226   1889.523963  -9735.127301    -74.318904
PC46  -9763.519140 -16631.212213  20144.018733   -129.682974
PE02 -22244.372039 -19260.852744  -3138.333095    109.256943
PE03 -12474.476092 -14567.306546  22551.133615    -98.646998
PE04  18030.564488  -7713.729511 -22160.170025   -344.074249
PE05    271.211827 -27946.417053   9761.595312   4726.822505
PE07 -13167.494107  24857.883649   9208.725745   -107.599185
PE08 -17891.737502   6914.352920  22546.109704   -235.146710
PE09  13150.062730 -24828.936832  -9329.289365   -361.878811
PE10  26510.315984 -11525.409568  -6361.964125   -607.465391
PE11  19454.447889 -15812.104689 -15727.750561   3193.440185
PE12  28847.549177  -5897.979909   2895.901159   -937.864568
PE13 -20042.067841  15596.732891  15224.570411    -20.442307
PE14  17807.092960  -3275.255636  19038.638012     59.705518
PE15 -28869.992244   5593.863984  -3443.677513    -89.864396
PE18 -17387.266574  -9568.232540 -23009.384930    408.315683
PE19  11102.548838  16689.640684 -21769.254625   -478.113095
PE21   9955.841771  23917.763396 -14331.262676   -582.706954
PE24   9136.820220 -14522.745310  24094.838549   -637.933332
PE25  -9606.935589 -23863.062384  14632.277609      1.809479
PE26   1103.625391  16341.037592  24662.794322    389.541193
PE27  -8710.813967  14827.910600 -24099.509706   -292.717447
PE30 -22127.638838  -3112.288946 -19422.603397    -70.381172
PE31  22038.706548   2911.490644  19545.784044    -17.686983
PE33  20197.609257   7886.756741  20153.236819      8.664861
PE34 -20661.029983  -7512.633926 -19823.480047    -98.636940
PE36   -366.480148 -16317.728498 -24687.560387   -195.912446
PG01  -7101.253714 -13206.999198 -22298.174872    172.759652
PG02   2789.966738 -16126.753734 -20372.237417   -474.134671
PG03  -8856.822365 -21116.951137 -13705.700446    237.693168
PG04    820.939822 -25056.950775   8575.347280    309.167738
PG05  -3306.694666  15966.836193  20773.060644   -164.502358
PG06 -25910.250386   5493.492492  -2604.879797    378.005097
PG07 -18090.609812  -8305.921801  18300.953957    -78.771839
PG08   5455.916356 -25750.594495    136.531537     37.497837
PG09  -9533.908707 -16646.081034  18267.027838    116.398331
PG10  21394.381454   7639.160649 -13816.874005      0.539527
PG11 -21849.488770  11896.751183   9259.049947   -599.201107
PG12   6459.721189  21713.432813 -14205.180484   -484.908163
PG13 -13590.078382  21562.697701   6840.431490    632.020538
PG14 -21811.540180 -10850.458916 -10787.048049    344.385626
PG15  -2150.492446  26357.841717   -216.949572    135.156075
PG16  10030.946283 -11276.709264  21498.278961   -346.628805
PG17 -14493.154047  -3226.045216 -21605.972352    714.548346
PG18  18725.324129   7178.182472  17522.023442   -570.711898
PG19 -16656.283398   6306.452031 -19769.651436    450.643842
PG20 -14622.520471   7988.029660  20713.460444    384.818120
PG21   7849.358153 -16742.815639 -18194.867575    132.275553
PG22 -19574.906801  -4556.423114 -16788.393917     19.721428
PG23  20956.622855  16231.208237  -2871.475177    171.776358
PG24  -4185.172275  17477.849737 -19845.247468   -442.836380
PG25  16028.834873  20590.921377  -6006.330755    490.654708
PG26  18656.254382  -2736.710282  18689.164385    182.299310
PG27  12682.167810 -20079.951127  11150.813723     -9.952604
PG28  25603.716888  -4437.826996  -5498.971315   -155.884871
PG29   6513.038286  18732.741088  17563.883650   -605.415766
PG30 -24751.113774   -537.048788  10110.330625   -423.020396
PG31  24570.197341  -9706.117365   4156.433612   -227.946382
PG32  15444.734758   -588.519159 -21372.903931   -614.931260
PJ02 -22303.256342  19590.285711 -25336.202809     -2.670522
PJ04 -25503.127617  28537.944243  23622.438213     50.744589
PR01    424.411836 -23662.722474  -9528.184764     79.051234
PR02  -6997.278649 -23143.229181   8078.526016    -22.558347
PR03 -11313.014636  -9316.123028  20914.467496     95.913310
PR04  -9084.278286   9035.324028  22094.262508    226.528854
PR05  -2252.044271  22721.653728  11413.865412    128.047009
PR07  11306.250192   8553.883566 -21171.488234     77.418508
PR08   9015.232275  -9349.592911 -21881.727830    -74.671407
PR09  15187.482931  13527.815564 -15327.970051    173.997376
PR11  20154.401160   -279.395916  15628.041464     32.041592
PR12   3048.253561 -10652.311865  22993.326258     37.526236
PR13 -13012.713713 -13677.514176  17131.244549    -45.072451
PR14 -23977.660958  -8697.558618   -765.394944     26.190224
PR15 -19277.713725   1104.986747 -16657.672846     81.561784
PR16  -3252.556970  10406.193787 -23056.967569     23.811969
PR17 -16637.349560   1884.492717 -19223.047863     67.004093
PR18 -21221.538131  13030.556767  -5646.934709    130.941390
PR19 -16546.221771  17016.878879   9350.524755   -268.487318
PR20   1220.213865  11562.664941  22718.776463   -109.412749
PR21  16740.875800  -1962.579907  19152.595567    -82.661684
PR22  21530.701134 -12874.520559   4594.233377    111.594390
PR24  -2549.237670 -11504.450571 -22607.392614    -46.837402
EOF
